NORAD_CAT_ID,OBJECT_NAME,OBJECT_TYPE,EPOCH,MEAN_MOTION,ECCENTRICITY,INCLINATION,RA_OF_ASC_NODE,ARG_OF_PERICENTER,MEAN_ANOMALY,BSTAR,MEAN_MOTION_DOT,MEAN_MOTION_DDOT,TLE_LINE0,TLE_LINE1,TLE_LINE2,SEMIMAJOR_AXIS,PERIOD,APOGEE,PERIGEE,DECAYED
52113.0,STARLINK-3736,PAYLOAD,2022-04-01 14:00:01,15.73276506,0.0001257,53.2166,77.8115,63.9171,136.1678,-0.00077782,-0.00108736,0.0,0 STARLINK-3736,1 52113U 22029AB  22091.58334491 -.00108736  00000-0 -77782-3 0  9999,2 52113  53.2166  77.8115 0001257  63.9171 136.1678 15.73276506  2891,6727.677,91.529,350.38800000000015,348.696,0.0
52113.0,STARLINK-3736,PAYLOAD,2022-04-01 22:00:00,15.73195141,0.0001221,53.2169,76.1605,77.1937,211.8777,-0.00032279,-0.00045666,0.0,0 STARLINK-3736,1 52113U 22029AB  22091.91667824 -.00045666  00000-0 -32279-3 0  9999,2 52113  53.2169  76.1605 0001221  77.1937 211.8777 15.73195141  2951,6727.909000000002,91.533,350.596,348.95300000000015,0.0
52113.0,STARLINK-3736,PAYLOAD,2022-04-02 04:00:00,15.73154337,0.0001202,53.2168,74.9251,70.5896,195.1675,0.00010465,0.00014063,0.0,0 STARLINK-3736,1 52113U 22029AB  22092.16667824  .00014063  00000-0  10465-3 0  9995,2 52113  53.2168  74.9251 0001202  70.5896 195.1675 15.73154337  3452,6728.025,91.536,350.699,349.082,0.0
52113.0,STARLINK-3736,PAYLOAD,2022-04-02 22:00:01,15.73196088,0.0001218,53.2174,71.2121,79.9437,115.9195,-0.00034773,-0.00049128,0.0,0 STARLINK-3736,1 52113U 22029AB  22092.91668981 -.00049128  00000-0 -34773-3 0  9993,2 52113  53.2174  71.2121 0001218  79.9437 115.9195 15.73196088  3104,6727.906,91.533,350.591,348.952,0.0
52113.0,STARLINK-3736,PAYLOAD,2022-04-03 04:00:00,15.73159574,0.0001368,53.2175,69.9767,72.7174,99.7534,-0.00056968,-0.0007968,0.0,0 STARLINK-3736,1 52113U 22029AB  22093.16667824 -.00079680  00000-0 -56968-3 0  9992,2 52113  53.2175  69.9767 0001368  72.7174  99.7534 15.73159574  3611,6728.01,91.536,350.796,348.955,0.0
52113.0,STARLINK-3736,PAYLOAD,2022-04-03 12:00:00,15.73113033,0.0001240999999999,53.2172,68.3276,68.76100000000001,192.5581,0.00043568,0.0006074,0.0,0 STARLINK-3736,1 52113U 22029AB  22093.50001157  .00060740  00000-0  43568-3 0  9998,2 52113  53.2172  68.3276 0001241  68.7610 192.5581 15.73113033  3665,6728.143,91.538,350.843,349.173,0.0
52113.0,STARLINK-3736,PAYLOAD,2022-04-03 22:00:00,15.73170159,0.0001185,53.2177,66.2645,85.0104,17.3661,0.00055729,0.00078222,0.0,0 STARLINK-3736,1 52113U 22029AB  22093.91667824  .00078222  00000-0  55729-3 0  9998,2 52113  53.2177  66.2645 0001185  85.0104  17.3661 15.73170159  3265,6727.98,91.535,350.64300000000014,349.048,0.0
52113.0,STARLINK-3736,PAYLOAD,2022-04-04 04:00:00,15.73232448,0.0001066,53.2175,65.0294,73.4479,5.6039,-0.00056492,-0.00079267,0.0,0 STARLINK-3736,1 52113U 22029AB  22094.16667824 -.00079267  00000-0 -56492-3 0  9996,2 52113  53.2175  65.0294 0001066  73.4479   5.6039 15.73232448  3779,6727.803000000001,91.531,350.385,348.95,0.0
52113.0,STARLINK-3736,PAYLOAD,2022-04-04 12:00:00,15.73192241,8.859999999999999e-05,53.2173,63.3798,69.1153,98.8645,0.00037004,0.00051614,0.0,0 STARLINK-3736,1 52113U 22029AB  22094.50001157  .00051614  00000-0  37004-3 0  9997,2 52113  53.2173  63.3798 0000886  69.1153  98.8645 15.73192241  3826,6727.917,91.534,350.37800000000016,349.186,0.0
52113.0,STARLINK-3736,PAYLOAD,2022-04-04 14:00:01,15.73208989,8.609999999999999e-05,53.2175,62.9668,74.7868,205.4208,0.00028932,0.00040194,0.0,0 STARLINK-3736,1 52113U 22029AB  22094.58334491  .00040194  00000-0  28932-3 0  9996,2 52113  53.2175  62.9668 0000861  74.7868 205.4208 15.73208989  3375,6727.87,91.533,350.314,349.155,0.0
52113.0,STARLINK-3736,PAYLOAD,2022-04-04 20:00:01,15.732259099999998,8.63e-05,53.2177,61.7284,87.1015,169.8337,0.00089268,0.00126707,0.0,0 STARLINK-3736,1 52113U 22029AB  22094.83334491  .00126707  00000-0  89268-3 0  9998,2 52113  53.2177  61.7284 0000863  87.1015 169.8337 15.73225910  3876,6727.821,91.532,350.267,349.106,0.0
52113.0,STARLINK-3736,PAYLOAD,2022-04-04 22:00:00,15.73277455,9.43e-05,53.218,61.3163,85.8558,283.3146,0.00035089,0.00049076,0.0,0 STARLINK-3736,1 52113U 22029AB  22094.91667824  .00049076  00000-0  35089-3 0  9991,2 52113  53.2180  61.3163 0000943  85.8558 283.3146 15.73277455  3420,6727.674,91.529,350.1740000000001,348.905,0.0
52113.0,STARLINK-3736,PAYLOAD,2022-04-05 04:00:00,15.73319843,0.0001057,53.2179,60.0809,75.8665,270.0672,-0.00067835,-0.00095234,0.0,0 STARLINK-3736,1 52113U 22029AB  22095.16667824 -.00095234  00000-0 -67835-3 0  9992,2 52113  53.2179  60.0809 0001057  75.8665 270.0672 15.73319843  3926,6727.554,91.526,350.13,348.707,0.0
52113.0,STARLINK-3736,PAYLOAD,2022-04-05 14:00:01,15.73263836,9.53e-05,53.2179,58.0181,78.8283,108.4224,-0.00093549,-0.00130246,0.0,0 STARLINK-3736,1 52113U 22029AB  22095.58335648 -.00130246  00000-0 -93549-3 0  9998,2 52113  53.2179  58.0181 0000953  78.8283 108.4224 15.73263836  3533,6727.7130000000025,91.529,350.219,348.93699999999984,0.0
52113.0,STARLINK-3736,PAYLOAD,2022-04-05 22:00:00,15.73153486,8.52e-05,53.218,56.3681,91.8118,184.3237,0.00023333,0.00032187,0.0,0 STARLINK-3736,1 52113U 22029AB  22095.91667824  .00032187  00000-0  23333-3 0  9996,2 52113  53.2180  56.3681 0000852  91.8118 184.3237 15.73153486  3582,6728.028,91.536,350.466,349.32,0.0
52113.0,STARLINK-3736,PAYLOAD,2022-04-06 04:00:00,15.73154197,8.43e-05,53.2177,55.1331,75.9781,176.8112,0.00040382,0.00056322,0.0,0 STARLINK-3736,1 52113U 22029AB  22096.16667824  .00056322  00000-0  40382-3 0  9994,2 52113  53.2177  55.1331 0000843  75.9781 176.8112 15.73154197  4080,6728.026,91.536,350.458,349.324,0.0
52113.0,STARLINK-3736,PAYLOAD,2022-04-06 14:00:01,15.73236165,8.58e-05,53.2177,53.0701,85.3868,8.5317,-0.0005571,-0.00078198,0.0,0 STARLINK-3736,1 52113U 22029AB  22096.58334491 -.00078198  00000-0 -55710-3 0  9999,2 52113  53.2177  53.0701 0000858  85.3868   8.5317 15.73236165  3695,6727.792,91.531,350.2340000000001,349.08,0.0
52113.0,STARLINK-3736,PAYLOAD,2022-04-06 20:00:01,15.73164393,0.0001033,53.2179,51.832,95.2243,335.4059,0.00076056,0.00107327,0.0,0 STARLINK-3736,1 52113U 22029AB  22096.83334491  .00107327  00000-0  76056-3 0  9998,2 52113  53.2179  51.8320 0001033  95.2243 335.4059 15.73164393  4197,6727.996999999999,91.535,350.557,349.167,0.0
52113.0,STARLINK-3736,PAYLOAD,2022-04-06 22:00:00,15.73204691,0.000103,53.2181,51.4201,96.4654,86.3827,0.00037724,0.00052666,0.0,0 STARLINK-3736,1 52113U 22029AB  22096.91667824  .00052666  00000-0  37724-3 0  9990,2 52113  53.2181  51.4201 0001030  96.4654  86.3827 15.73204691  3718,6727.882,91.533,350.44,349.05400000000014,0.0
52113.0,STARLINK-3736,PAYLOAD,2022-04-07 04:00:00,15.73235522,9.69e-05,53.218,50.1848,80.0636,79.4846,-0.00036388,-0.00051452,0.0,0 STARLINK-3736,1 52113U 22029AB  22097.16667824 -.00051452  00000-0 -36388-3 0  9997,2 52113  53.2180  50.1848 0000969  80.0636  79.4846 15.73235522  4249,6727.794,91.531,350.311,349.00699999999995,0.0
52113.0,STARLINK-3736,PAYLOAD,2022-04-07 14:00:01,15.73240965,8.690000000000001e-05,53.2179,48.1218,90.03299999999999,270.7039,-0.00037036,-0.00052363,0.0,0 STARLINK-3736,1 52113U 22029AB  22097.58334491 -.00052363  00000-0 -37036-3 0  9997,2 52113  53.2179  48.1218 0000869  90.0330 270.7039 15.73240965  3725,6727.778,91.531,350.228,349.059,0.0
52113.0,STARLINK-3736,PAYLOAD,2022-04-07 20:00:01,15.73201062,9.44e-05,53.2179,46.8839,97.3053,240.1532,0.00054522,0.00076601,0.0,0 STARLINK-3736,1 52113U 22029AB  22097.83334491  .00076601  00000-0  54522-3 0  9993,2 52113  53.2179  46.8839 0000944  97.3053 240.1532 15.73201062  4348,6727.892,91.533,350.392,349.122,0.0
52113.0,STARLINK-3736,PAYLOAD,2022-04-07 22:00:00,15.73252887,9.71e-05,53.2179,46.4721,96.7046,352.9778,-0.00013294,-0.00019276,0.0,0 STARLINK-3736,1 52113U 22029AB  22097.91667824 -.00019276  00000-0 -13294-3 0  9999,2 52113  53.2179  46.4721 0000971  96.7046 352.9778 15.73252887  3703,6727.744000000002,91.53,350.26300000000015,348.956,0.0
52113.0,STARLINK-3736,PAYLOAD,2022-04-08 04:00:00,15.73218866,8.740000000000001e-05,53.2176,45.2367,84.839,341.5889,0.00012461,0.00016918,0.0,0 STARLINK-3736,1 52113U 22029AB  22098.16667824  .00016918  00000-0  12461-3 0  9990,2 52113  53.2176  45.2367 0000874  84.8390 341.5889 15.73218866  4409,6727.840999999999,91.532,350.2940000000001,349.11800000000005,0.0
52113.0,STARLINK-3736,PAYLOAD,2022-04-08 14:00:03,15.73253792,9.87e-05,53.2175,43.1731,94.3742,173.4004,-0.00044843,-0.00063225,0.0,0 STARLINK-3736,1 52113U 22029AB  22098.58336806 -.00063225  00000-0 -44843-3 0  9993,2 52113  53.2175  43.1731 0000987  94.3742 173.4004 15.73253792  3713,6727.7419999999975,91.53,350.271,348.9430000000001,0.0
52113.0,STARLINK-3736,PAYLOAD,2022-04-08 22:00:00,15.73233381,0.0001135,53.218,41.5235,99.7361,256.8679,-0.00011596,-0.00016884,0.0,0 STARLINK-3736,1 52113U 22029AB  22098.91667824 -.00016884  00000-0 -11596-3 0  9995,2 52113  53.2180  41.5235 0001135  99.7361 256.8679 15.73233381  3718,6727.8,91.531,350.42900000000014,348.901,0.0
52113.0,STARLINK-3736,PAYLOAD,2022-04-09 04:00:00,15.73195092,0.0001174,53.2177,40.2881,87.8663,245.4185,-0.00031663,-0.0004481,0.0,0 STARLINK-3736,1 52113U 22029AB  22099.16667824 -.00044810  00000-0 -31663-3 0  9990,2 52113  53.2177  40.2881 0001174  87.8663 245.4185 15.73195092  4558,6727.909000000002,91.533,350.564,348.9840000000001,0.0
52113.0,STARLINK-3736,PAYLOAD,2022-04-09 14:00:01,15.73119209,0.0001192,53.2177,38.2247,95.32,79.0837,0.00045397,0.00063352,0.0,0 STARLINK-3736,1 52113U 22029AB  22099.58334491  .00063352  00000-0  45397-3 0  9996,2 52113  53.2177  38.2247 0001192  95.3200  79.0837 15.73119209  3721,6728.126,91.538,350.793,349.189,0.0
52113.0,STARLINK-3736,PAYLOAD,2022-04-09 20:00:01,15.73164608,0.0001281999999999,53.2177,36.9874,101.641,49.4056,0.0006201,0.00087182,0.0,0 STARLINK-3736,1 52113U 22029AB  22099.83334491  .00087182  00000-0  62010-3 0  9992,2 52113  53.2177  36.9874 0001282 101.6410  49.4056 15.73164608  4667,6727.996,91.535,350.724,348.999,0.0
